IRIDIUM 36              
1 24967U 97056C   24215.78177734  .00000826  00000+0  27262-3 0  9990
2 24967  86.3983 306.7337 0002106  90.7980 269.3458 14.36923059406489
IRIDIUM 39              
1 25042U 97069D   24215.86020632  .00001425  00000+0  37702-3 0  9998
2 25042  86.3952 347.5735 0016194 291.3018  68.6456 14.48115806402871
IRIDIUM 38              
1 25043U 97069E   24215.91400619  .00000968  00000+0  31782-3 0  9995
2 25043  86.3982   7.0240 0003822  79.1627 281.0000 14.37371028400227
IRIDIUM 42              
1 25077U 97077A   24215.88293711  .00000860  00000+0  29148-3 0  9994
2 25077  86.3979  12.8117 0002747  89.4202 270.7309 14.35660295395512
IRIDIUM 44              
1 25078U 97077B   24215.92733498  .00000910  00000+0  28575-3 0  9990
2 25078  86.3987 355.5800 0002589  48.1812 311.9608 14.39509767397906
IRIDIUM 45              
1 25104U 97082A   24215.92377334  .00023728  00000+0  12659-2 0  9996
2 25104  86.3755 200.2914 0157723  69.8582 291.9541 15.04841269403883
IRIDIUM 24              
1 25105U 97082B   24215.95773426  .00001020  00000+0  30915-3 0  9999
2 25105  86.3910 215.0736 0013382  55.9517 304.2951 14.41298133397363
IRIDIUM 51              
1 25262U 98018A   24215.95909013  .00030908  00000+0  13493-2 0  9994
2 25262  86.3940 209.9398 0139457  11.7185 348.7242 15.13535794398486
